JILIN-1 GAOFEN 3A       
1 44312U 19032C   26068.74542089  .00016264  00000+0  55381-3 0  9993
2 44312  44.9746 183.2861 0002618 111.2900 248.8263 15.30271310372592
STARLINK-35395          
1 66014U 25232K   26068.47225546  .00032995  00000+0  11212-2 0  9994
2 66014  53.1590 104.8238 0001358  82.1646 277.9509 15.30200354 23403
